{
    "links": {
        "self": "http://www.neowsapp.com/rest/v1/neo/3476778?api_key=iIulBulltgU6a56xZRHN4H3l9WmuAYTsLGpBGhQ2"
    },
    "id": "3476778",
    "neo_reference_id": "3476778",
    "name": "(2009 WE)",
    "designation": "2009 WE",
    "nasa_jpl_url": "http://ssd.jpl.nasa.gov/sbdb.cgi?sstr=3476778",
    "absolute_magnitude_h": 22.3,
    "estimated_diameter": {
        "kilometers": {
            "estimated_diameter_min": 0.0921626549,
            "estimated_diameter_max": 0.2060819612
        },
        "meters": {
            "estimated_diameter_min": 92.1626548503,
            "estimated_diameter_max": 206.0819612321
        },
        "miles": {
            "estimated_diameter_min": 0.057267201,
            "estimated_diameter_max": 0.1280533543
        },
        "feet": {
            "estimated_diameter_min": 302.370924539,
            "estimated_diameter_max": 676.1219416887
        }
    },
    "is_potentially_hazardous_asteroid": false,
    "close_approach_data": [
        {
            "close_approach_date": "2008-04-20",
            "close_approach_date_full": "2008-Apr-20 22:17",
            "epoch_date_close_approach": 1208729820000,
            "relative_velocity": {
                "kilometers_per_second": "21.8754641312",
                "kilometers_per_hour": "78751.6708724003",
                "miles_per_hour": "48933.2257151312"
            },
            "miss_distance": {
                "astronomical": "0.491209974",
                "lunar": "191.080679886",
                "kilometers": "73483965.83315538",
                "miles": "45660819.048409044"
            },
            "orbiting_body": "Earth"
        },
        {
            "close_approach_date": "2009-11-24",
            "close_approach_date_full": "2009-Nov-24 06:39",
            "epoch_date_close_approach": 1259044740000,
            "relative_velocity": {
                "kilometers_per_second": "15.922746912",
                "kilometers_per_hour": "57321.8888830697",
                "miles_per_hour": "35617.5925673718"
            },
            "miss_distance": {
                "astronomical": "0.2010504232",
                "lunar": "78.2086146248",
                "kilometers": "30076715.073318584",
                "miles": "18688804.1351970992"
            },
            "orbiting_body": "Earth"
        },
        {
            "close_approach_date": "2010-04-19",
            "close_approach_date_full": "2010-Apr-19 13:24",
            "epoch_date_close_approach": 1271683440000,
            "relative_velocity": {
                "kilometers_per_second": "15.7501890155",
                "kilometers_per_hour": "56700.6804557395",
                "miles_per_hour": "35231.5978087344"
            },
            "miss_distance": {
                "astronomical": "0.3549256314",
                "lunar": "138.0660706146",
                "kilometers": "53096118.465845118",
                "miles": "32992398.1368459084"
            },
            "orbiting_body": "Earth"
        },
        {
            "close_approach_date": "2011-11-15",
            "close_approach_date_full": "2011-Nov-15 13:36",
            "epoch_date_close_approach": 1321364160000,
            "relative_velocity": {
                "kilometers_per_second": "22.6164604708",
                "kilometers_per_hour": "81419.2576948696",
                "miles_per_hour": "50590.760427126"
            },
            "miss_distance": {
                "astronomical": "0.3519184437",
                "lunar": "136.8962745993",
                "kilometers": "52646249.591234919",
                "miles": "32712862.5803991222"
            },
            "orbiting_body": "Earth"
        }
    ],
    "orbital_data": {
        "orbit_id": "11",
        "orbit_determination_date": "2017-04-06 08:59:10",
        "first_observation_date": "2009-11-16",
        "last_observation_date": "2009-11-26",
        "data_arc_in_days": 10,
        "observations_used": 45,
        "orbit_uncertainty": "8",
        "minimum_orbit_intersection": ".166288",
        "jupiter_tisserand_invariant": "4.237",
        "epoch_osculation": "2455154.5",
        "eccentricity": ".3791262045346044",
        "semi_major_axis": "1.551307732295635",
        "inclination": "29.0933273423695",
        "ascending_node_longitude": "51.89814381663236",
        "orbital_period": "705.7410229994316",
        "perihelion_distance": ".9631663196852067",
        "perihelion_argument": "72.05130822827248",
        "aphelion_distance": "2.139449144906064",
        "perihelion_time": "2455221.665278668550",
        "mean_anomaly": "325.7388481997064",
        "mean_motion": ".510102131331382",
        "equinox": "J2000",
        "orbit_class": {
            "orbit_class_type": "APO",
            "orbit_class_description": "Near-Earth asteroid orbits which cross the Earth’s orbit similar to that of 1862 Apollo",
            "orbit_class_range": "a (semi-major axis) > 1.0 AU; q (perihelion) < 1.017 AU"
        }
    },
    "is_sentry_object": false
}